QIANFAN-25              
1 61558U 24185G   25237.60873466  .00000376  00000+0  22177-3 0  9991
2 61558  88.9749  90.5567 0005484 287.7499  72.3084 14.05766982 54170
QIANFAN-26              
1 61559U 24185H   25237.59243056  .00000212  00000+0  19923-3 0  9990
2 61559  88.9763  91.5469 0005700   2.6201 357.4994 13.77728822 53642
QIANFAN-27              
1 61560U 24185J   25237.58622565  .00000381  00000+0  15022-3 0  9990
2 61560  88.9756  89.7572 0006111 296.7799  63.2770 14.27140059 54590
QIANFAN-28              
1 61561U 24185K   25237.61684693  .00000570  00000+0  22514-3 0  9999
2 61561  88.9772  89.7488 0005139 299.2068  60.8612 14.27713056 54604
QIANFAN-29              
1 61562U 24185L   25237.56842908  .00000143  00000+0  20336-3 0  9995
2 61562  88.9757  92.6085 0010803  17.2616 342.8901 13.50962593 53054
QIANFAN-30              
1 61563U 24185M   25237.60889348  .00000128  00000+0  18263-3 0  9999
2 61563  88.9762  92.0864 0007775   5.9598 354.1644 13.49935746 53347
QIANFAN-31              
1 61564U 24185N   25237.62817984  .00000122  00000+0  15187-3 0  9995
2 61564  88.9746  92.0592 0007402   4.7687 355.3537 13.57909323 53357
QIANFAN-32              
1 61565U 24185P   25237.56381632  .00000146  00000+0  20859-3 0  9993
2 61565  88.9805  92.1923 0010398  26.8891 333.2797 13.50688688 53302
